
# Worst residual: 12.70 km
# MJD 58670.000000 (2019 Jul  6  0:00)
2018-103B = NORAD 43846 = Chang'e 4 booster
1 43846U 18103B   19187.49919926  .00000000  00000-0  00000-0 2  6778
2 43846 049.8575 095.7444 5557244 019.1528 304.1323 00.04763569    02

# Worst residual: 8.56 km
# MJD 58671.000000 (2019 Jul  7  0:00)
2018-103B = NORAD 43846 = Chang'e 4 booster
1 43846U 18103B   19188.49919926  .00000000  00000-0  00000-0 2  6779
2 43846 049.8514 095.6545 5553287 019.5523 320.9574 00.04794680    00

# Worst residual: 6.46 km
# MJD 58672.000000 (2019 Jul  8  0:00)
2018-103B = NORAD 43846 = Chang'e 4 booster
1 43846U 18103B   19189.49919926  .00000000  00000-0  00000-0 2  6770
2 43846 049.8696 095.5771 5549160 019.7627 338.1114 00.04810865    08

# Worst residual: 4.16 km
# MJD 58673.000000 (2019 Jul  9  0:00)
2018-103B = NORAD 43846 = Chang'e 4 booster
1 43846U 18103B   19190.49919926  .00000000  00000-0  00000-0 2  6772
2 43846 049.9012 095.5482 5548332 019.8009 355.4241 00.04813065    03

# Worst residual: 5.20 km
# MJD 58674.000000 (2019 Jul 10  0:00)
2018-103B = NORAD 43846 = Chang'e 4 booster
1 43846U 18103B   19191.49919926  .00000000  00000-0  00000-0 2  6773
2 43846 049.9128 095.5540 5540859 019.7898 012.7862 00.04825107    09

# Worst residual: 14.41 km
# MJD 58675.000000 (2019 Jul 11  0:00)
2018-103B = NORAD 43846 = Chang'e 4 booster
1 43846U 18103B   19192.49919926  .00000000  00000-0  00000-0 2  6774
2 43846 049.9151 095.5208 5526892 019.8330 030.2805 00.04842544    05

# Worst residual: 22.65 km
# MJD 58676.000000 (2019 Jul 12  0:00)
2018-103B = NORAD 43846 = Chang'e 4 booster
1 43846U 18103B   19193.49919926  .00000000  00000-0  00000-0 2  6775
2 43846 049.9605 095.4294 5507792 020.0605 047.8138 00.04847929    05

# Worst residual: 30.97 km
# MJD 58677.000000 (2019 Jul 13  0:00)
2018-103B = NORAD 43846 = Chang'e 4 booster
1 43846U 18103B   19194.49919926  .00000000  00000-0  00000-0 2  6776
2 43846 050.0820 095.3032 5476175 020.4935 065.2806 00.04838137    03

# Worst residual: 39.39 km
# MJD 58678.000000 (2019 Jul 14  0:00)
2018-103B = NORAD 43846 = Chang'e 4 booster
1 43846U 18103B   19195.49919926  .00000000  00000-0  00000-0 2  6777
2 43846 050.2852 095.1773 5422490 021.1053 082.6198 00.04812714    00

# Worst residual: 43.49 km
# MJD 58679.000000 (2019 Jul 15  0:00)
2018-103B = NORAD 43846 = Chang'e 4 booster
1 43846U 18103B   19196.49919926  .00000000  00000-0  00000-0 2  6778
2 43846 050.5198 095.0939 5337117 021.8172 099.8371 00.04772083    06

# Worst residual: 37.98 km
# MJD 58680.000000 (2019 Jul 16  0:00)
2018-103B = NORAD 43846 = Chang'e 4 booster
1 43846U 18103B   19197.49919926  .00000000  00000-0  00000-0 2  6779
2 43846 050.6627 095.0706 5222576 022.4530 117.0238 00.04721645    06

# Worst residual: 26.01 km
# MJD 58681.000000 (2019 Jul 17  0:00)
2018-103B = NORAD 43846 = Chang'e 4 booster
1 43846U 18103B   19198.49919926  .00000000  00000-0  00000-0 2  6770
2 43846 050.6289 095.0679 5106003 022.8268 134.2476 00.04673668    03

# Worst residual: 20.46 km
# MJD 58682.000000 (2019 Jul 18  0:00)
2018-103B = NORAD 43846 = Chang'e 4 booster
1 43846U 18103B   19199.49919926  .00000000  00000-0  00000-0 2  6771
2 43846 050.4853 095.0408 5017084 022.9374 151.4254 00.04637805    05

# Worst residual: 12.59 km
# MJD 58683.000000 (2019 Jul 19  0:00)
2018-103B = NORAD 43846 = Chang'e 4 booster
1 43846U 18103B   19200.49919926  .00000000  00000-0  00000-0 2  6774
2 43846 050.3411 094.9917 4962649 022.9174 168.4351 00.04615053    07

# Worst residual: 5.55 km
# MJD 58684.000000 (2019 Jul 20  0:00)
2018-103B = NORAD 43846 = Chang'e 4 booster
1 43846U 18103B   19201.49919926  .00000000  00000-0  00000-0 2  6775
2 43846 050.2469 094.9445 4935305 022.8769 185.2306 00.04602731    09

# Worst residual: 1.66 km
# MJD 58685.000000 (2019 Jul 21  0:00)
2018-103B = NORAD 43846 = Chang'e 4 booster
1 43846U 18103B   19202.49919926  .00000000  00000-0  00000-0 2  6776
2 43846 050.2014 094.9139 4928074 022.8723 201.8385 00.04599265    09

# Worst residual: 5.37 km
# MJD 58686.000000 (2019 Jul 22  0:00)
2018-103B = NORAD 43846 = Chang'e 4 booster
1 43846U 18103B   19203.49919926  .00000000  00000-0  00000-0 2  6777
2 43846 050.1960 094.9094 4934192 022.9343 218.2937 00.04603154    03

# Worst residual: 8.87 km
# MJD 58687.000000 (2019 Jul 23  0:00)
2018-103B = NORAD 43846 = Chang'e 4 booster
1 43846U 18103B   19204.49919926  .00000000  00000-0  00000-0 2  6778
2 43846 050.2141 094.9305 4949794 023.0800 234.6493 00.04613971    01

# Worst residual: 11.24 km
# MJD 58688.000000 (2019 Jul 24  0:00)
2018-103B = NORAD 43846 = Chang'e 4 booster
1 43846U 18103B   19205.49919926  .00000000  00000-0  00000-0 2  6779
2 43846 050.2432 094.9743 4971833 023.3175 250.9661 00.04631226    08

# Worst residual: 13.42 km
# MJD 58689.000000 (2019 Jul 25  0:00)
2018-103B = NORAD 43846 = Chang'e 4 booster
1 43846U 18103B   19206.49919926  .00000000  00000-0  00000-0 2  6770
2 43846 050.2703 095.0287 4995406 023.6481 267.2861 00.04653735    01

# Worst residual: 14.13 km
# MJD 58690.000000 (2019 Jul 26  0:00)
2018-103B = NORAD 43846 = Chang'e 4 booster
1 43846U 18103B   19207.49919926  .00000000  00000-0  00000-0 2  6771
2 43846 050.2906 095.0893 5019189 024.0493 283.7016 00.04679659    01
